0 FENGYUN 1C DEB
1 31451U 99025BUP 13281.20086869  .00000587  00000-0  36324-3 0  5620
2 31451 099.0146 262.1820 0034084 132.6650 286.1999 14.08953640335643
0 FENGYUN 1C DEB
1 31451U 99025BUP 13283.76990747  .00000383  00000-0  24578-3 0  5635
2 31451 099.0146 264.7514 0034199 125.5989 356.8392 14.08960136336005
0 FENGYUN 1C DEB
1 31451U 99025BUP 13286.17142558  .00000224  00000-0  15459-3 0  5645
2 31451 099.0148 267.1532 0034276 119.0049 297.8174 14.08963617336341
0 FENGYUN 1C DEB
1 31451U 99025BUP 13289.15484148  .00000467  00000-0  29380-3 0  5658
2 31451 099.0154 270.1368 0034335 110.8951 310.2640 14.08965651336760
0 FENGYUN 1C DEB
1 31451U 99025BUP 13291.21320781  .00000684  00000-0  41846-3 0  5663
2 31451 099.0160 272.1953 0034351 105.3188 310.6851 14.08965895337059
0 FENGYUN 1C DEB
1 31451U 99025BUP 13293.78244336  .00000805  00000-0  48834-3 0  5678
2 31451 099.0165 274.7650 0034390 098.3389 022.3575 14.08969398337415
